start=new Date('%Y-%m-41T00:00:00.000Z').valueOf();
sats=[{"NORAD_CAT_ID":"47419","MEAN_ELEMENT_THEORY":"SGP4","LAUNCH_DATE":"2021-01-24","REV_AT_EPOCH":"3177","RCS_SIZE":"LARGE","COUNTRY_CODE":"US","PERIAPSIS":"522.147","SITE":"AFETR","REF_FRAME":"TEME","MEAN_ANOMALY":"29.9188","INCLINATION":"97.4910","EPHEMERIS_TYPE":"0","TLE_LINE2":"2 47419  97.4910 293.2141 0001291 330.1970  29.9188 15.14322463 31771","MEAN_MOTION_DDOT":"0.0000000000000","EPOCH":"2021-08-20T12:31:23.920896","ELEMENT_SET_NO":"999","PERIOD":"95.092","OBJECT_NAME":"STARLINK-2205","MEAN_MOTION":"15.14322463","MEAN_MOTION_DOT":"0.00001141","ECCENTRICITY":"0.00012910","OBJECT_TYPE":"PAYLOAD","CENTER_NAME":"EARTH","RA_OF_ASC_NODE":"293.2141","CLASSIFICATION_TYPE":"U","SEMIMAJOR_AXIS":"6901.173","TIME_SYSTEM":"UTC","TLE_LINE1":"1 47419U 21006G   21232.52180464  .00001141  00000-0  65856-4 0  9995","BSTAR":"0.00006585600000","APOAPSIS":"523.929","ARG_OF_PERICENTER":"330.1970","GP_ID":"183155048","OBJECT_ID":"2021-006G","DECAY_DATE":null,"FILE":"3100512"},{"APOAPSIS":"523.748","ARG_OF_PERICENTER":"316.9866","GP_ID":"183157673","OBJECT_ID":"2021-006H","DECAY_DATE":null,"FILE":"3100529","ECCENTRICITY":"0.00010210","OBJECT_TYPE":"PAYLOAD","CENTER_NAME":"EARTH","RA_OF_ASC_NODE":"293.7974","CLASSIFICATION_TYPE":"U","SEMIMAJOR_AXIS":"6901.178","TIME_SYSTEM":"UTC","TLE_LINE1":"1 47420U 21006H   21233.11696362 -.00000571  00000-0 -27679-4 0  9991","BSTAR":"-0.00002767900000","EPHEMERIS_TYPE":"0","TLE_LINE2":"2 47420  97.4906 293.7974 0001021 316.9866  43.1286 15.14320833 31860","MEAN_MOTION_DDOT":"0.0000000000000","EPOCH":"2021-08-21T02:48:25.656768","ELEMENT_SET_NO":"999","PERIOD":"95.092","MEAN_MOTION":"15.14320833","OBJECT_NAME":"STARLINK-2206","MEAN_MOTION_DOT":"-0.00000571","NORAD_CAT_ID":"47420","LAUNCH_DATE":"2021-01-24","REV_AT_EPOCH":"3186","MEAN_ELEMENT_THEORY":"SGP4","COUNTRY_CODE":"US","RCS_SIZE":"LARGE","PERIAPSIS":"522.339","REF_FRAME":"TEME","SITE":"AFETR","MEAN_ANOMALY":"43.1286","INCLINATION":"97.4906"},{"SEMIMAJOR_AXIS":"6901.178","BSTAR":"0.00008371000000","TLE_LINE1":"1 47421U 21006J   21232.78703638  .00001468  00000-0  83710-4 0  9991","TIME_SYSTEM":"UTC","OBJECT_TYPE":"PAYLOAD","ECCENTRICITY":"0.00012470","CLASSIFICATION_TYPE":"U","RA_OF_ASC_NODE":"293.4723","CENTER_NAME":"EARTH","GP_ID":"183156050","FILE":"3100512","DECAY_DATE":null,"OBJECT_ID":"2021-006J","ARG_OF_PERICENTER":"322.4859","APOAPSIS":"523.904","REF_FRAME":"TEME","SITE":"AFETR","PERIAPSIS":"522.183","INCLINATION":"97.4908","MEAN_ANOMALY":"37.6285","NORAD_CAT_ID":"47421","RCS_SIZE":"LARGE","COUNTRY_CODE":"US","LAUNCH_DATE":"2021-01-24","REV_AT_EPOCH":"3181","MEAN_ELEMENT_THEORY":"SGP4","OBJECT_NAME":"STARLINK-2207","MEAN_MOTION":"15.14320745","PERIOD":"95.092","ELEMENT_SET_NO":"999","MEAN_MOTION_DOT":"0.00001468","MEAN_MOTION_DDOT":"0.0000000000000","TLE_LINE2":"2 47421  97.4908 293.4723 0001247 322.4859  37.6285 15.14320745 31810","EPHEMERIS_TYPE":"0","EPOCH":"2021-08-20T18:53:19.943232"},{"OBJECT_NAME":"STARLINK-2208","MEAN_MOTION":"15.14321286","ELEMENT_SET_NO":"999","PERIOD":"95.092","MEAN_MOTION_DOT":"-0.00000280","TLE_LINE2":"2 47422  97.4910 293.8097 0001077 310.3238  49.7900 15.14321286 31864","EPHEMERIS_TYPE":"0","MEAN_MOTION_DDOT":"0.0000000000000","EPOCH":"2021-08-21T02:46:27.153984","REF_FRAME":"TEME","SITE":"AFETR","PERIAPSIS":"522.299","MEAN_ANOMALY":"49.7900","INCLINATION":"97.4910","NORAD_CAT_ID":"47422","MEAN_ELEMENT_THEORY":"SGP4","LAUNCH_DATE":"2021-01-24","REV_AT_EPOCH":"3186","RCS_SIZE":"LARGE","COUNTRY_CODE":"US","GP_ID":"183157698","FILE":"3100530","OBJECT_ID":"2021-006K","DECAY_DATE":null,"ARG_OF_PERICENTER":"310.3238","APOAPSIS":"523.785","SEMIMAJOR_AXIS":"6901.177","BSTAR":"-0.00001179200000","TIME_SYSTEM":"UTC","TLE_LINE1":"1 47422U 21006K   21233.11559206 -.00000280  00000-0 -11792-4 0  9994","OBJECT_TYPE":"PAYLOAD","ECCENTRICITY":"0.00010770","CLASSIFICATION_TYPE":"U","CENTER_NAME":"EARTH","RA_OF_ASC_NODE":"293.8097"},{"EPHEMERIS_TYPE":"0","TLE_LINE2":"2 47548  53.0554 270.8238 0000335 158.4816 201.6187 15.06402988 31097","MEAN_MOTION_DDOT":"0.0000000000000","EPOCH":"2021-08-21T02:10:13.162368","OBJECT_NAME":"STARLINK-1782","MEAN_MOTION":"15.06402988","ELEMENT_SET_NO":"999","PERIOD":"95.592","MEAN_MOTION_DOT":"0.00000655","NORAD_CAT_ID":"47548","MEAN_ELEMENT_THEORY":"SGP4","LAUNCH_DATE":"2021-02-04","REV_AT_EPOCH":"3109","RCS_SIZE":"LARGE","COUNTRY_CODE":"US","REF_FRAME":"TEME","SITE":"AFETR","PERIAPSIS":"546.972","MEAN_ANOMALY":"201.6187","INCLINATION":"53.0554","ARG_OF_PERICENTER":"158.4816","APOAPSIS":"547.436","GP_ID":"183160219","FILE":"3100661","OBJECT_ID":"2021-009A","DECAY_DATE":null,"OBJECT_TYPE":"PAYLOAD","ECCENTRICITY":"0.00003350","CLASSIFICATION_TYPE":"U","CENTER_NAME":"EARTH","RA_OF_ASC_NODE":"270.8238","SEMIMAJOR_AXIS":"6925.339","BSTAR":"0.00006281300000","TIME_SYSTEM":"UTC","TLE_LINE1":"1 47548U 21009A   21233.09043012  .00000655  00000-0  62813-4 0  9990"},{"EPOCH":"2021-08-20T11:45:03.183552","TLE_LINE2":"2 47549  53.0548 273.5166 0000403 190.6508 169.4472 15.06399657 30403","EPHEMERIS_TYPE":"0","MEAN_MOTION_DDOT":"0.0000000000000","MEAN_MOTION_DOT":"0.00000458","MEAN_MOTION":"15.06399657","OBJECT_NAME":"STARLINK-1806","ELEMENT_SET_NO":"999","PERIOD":"95.592","REV_AT_EPOCH":"3040","LAUNCH_DATE":"2021-02-04","MEAN_ELEMENT_THEORY":"SGP4","COUNTRY_CODE":"US","RCS_SIZE":"LARGE","NORAD_CAT_ID":"47549","MEAN_ANOMALY":"169.4472","INCLINATION":"53.0548","REF_FRAME":"TEME","SITE":"AFETR","PERIAPSIS":"546.936","ARG_OF_PERICENTER":"190.6508","APOAPSIS":"547.494","FILE":"3100512","OBJECT_ID":"2021-009B","DECAY_DATE":null,"GP_ID":"183156066","CLASSIFICATION_TYPE":"U","CENTER_NAME":"EARTH","RA_OF_ASC_NODE":"273.5166","OBJECT_TYPE":"PAYLOAD","ECCENTRICITY":"0.00004030","BSTAR":"0.00004960100000","TLE_LINE1":"1 47549U 21009B   21232.48962018  .00000458  00000-0  49601-4 0  9990","TIME_SYSTEM":"UTC","SEMIMAJOR_AXIS":"6925.350"},{"EPOCH":"2021-08-20T12:02:18.758400","EPHEMERIS_TYPE":"0","TLE_LINE2":"2 47550  53.0537 263.4556 0000882  96.0128 264.0961 15.06377420 30546","MEAN_MOTION_DDOT":"0.0000000000000","MEAN_MOTION_DOT":"0.00002329","OBJECT_NAME":"STARLINK-1909","MEAN_MOTION":"15.06377420","ELEMENT_SET_NO":"999","PERIOD":"95.594","LAUNCH_DATE":"2021-02-04","MEAN_ELEMENT_THEORY":"SGP4","REV_AT_EPOCH":"3054","COUNTRY_CODE":"US","RCS_SIZE":"LARGE","NORAD_CAT_ID":"47550","MEAN_ANOMALY":"264.0961","INCLINATION":"53.0537","REF_FRAME":"TEME","SITE":"AFETR","PERIAPSIS":"546.672","ARG_OF_PERICENTER":"96.0128","APOAPSIS":"547.894","FILE":"3100512","OBJECT_ID":"2021-009C","DECAY_DATE":null,"GP_ID":"183155315","CLASSIFICATION_TYPE":"U","CENTER_NAME":"EARTH","RA_OF_ASC_NODE":"263.4556","OBJECT_TYPE":"PAYLOAD","ECCENTRICITY":"0.00008820","BSTAR":"0.00017531000000","TLE_LINE1":"1 47550U 21009C   21232.50160600  .00002329  00000-0  17531-3 0  9997","TIME_SYSTEM":"UTC","SEMIMAJOR_AXIS":"6925.418"},{"MEAN_MOTION_DOT":"0.00000459","PERIOD":"95.593","ELEMENT_SET_NO":"999","OBJECT_NAME":"STARLINK-1938","MEAN_MOTION":"15.06390188","EPOCH":"2021-08-21T10:11:54.106656","MEAN_MOTION_DDOT":"0.0000000000000","EPHEMERIS_TYPE":"0","TLE_LINE2":"2 47551  53.0549 279.3138 0000226 117.9655 242.1357 15.06390188 31006","INCLINATION":"53.0549","MEAN_ANOMALY":"242.1357","PERIAPSIS":"547.087","REF_FRAME":"TEME","SITE":"AFETR","RCS_SIZE":"LARGE","COUNTRY_CODE":"US","LAUNCH_DATE":"2021-02-04","MEAN_ELEMENT_THEORY":"SGP4","REV_AT_EPOCH":"3100","NORAD_CAT_ID":"47551","DECAY_DATE":null,"OBJECT_ID":"2021-009D","FILE":"3100802","GP_ID":"183164187","APOAPSIS":"547.400","ARG_OF_PERICENTER":"117.9655","TLE_LINE1":"1 47551U 21009D   21233.42493179  .00000459  00000-0  49674-4 0  9996","TIME_SYSTEM":"UTC","BSTAR":"0.00004967400000","SEMIMAJOR_AXIS":"6925.379","RA_OF_ASC_NODE":"279.3138","CENTER_NAME":"EARTH","CLASSIFICATION_TYPE":"U","ECCENTRICITY":"0.00002260","OBJECT_TYPE":"PAYLOAD"},{"APOAPSIS":"547.367","ARG_OF_PERICENTER":"168.5975","OBJECT_ID":"2021-009E","DECAY_DATE":null,"FILE":"3100802","GP_ID":"183164185","CENTER_NAME":"EARTH","RA_OF_ASC_NODE":"269.5996","CLASSIFICATION_TYPE":"U","ECCENTRICITY":"0.00002630","OBJECT_TYPE":"PAYLOAD","TIME_SYSTEM":"UTC","TLE_LINE1":"1 47552U 21009E   21233.36317827  .00000670  00000-0  63835-4 0  9995","BSTAR":"0.00006383500000","SEMIMAJOR_AXIS":"6925.319","EPOCH":"2021-08-21T08:42:58.602528","EPHEMERIS_TYPE":"0","TLE_LINE2":"2 47552  53.0558 269.5996 0000263 168.5975 191.5020 15.06409508 31133","MEAN_MOTION_DDOT":"0.0000000000000","MEAN_MOTION_DOT":"0.00000670","ELEMENT_SET_NO":"999","PERIOD":"95.592","OBJECT_NAME":"STARLINK-1940","MEAN_MOTION":"15.06409508","LAUNCH_DATE":"2021-02-04","MEAN_ELEMENT_THEORY":"SGP4","REV_AT_EPOCH":"3113","RCS_SIZE":"LARGE","COUNTRY_CODE":"US","NORAD_CAT_ID":"47552","MEAN_ANOMALY":"191.5020","INCLINATION":"53.0558","PERIAPSIS":"547.002","REF_FRAME":"TEME","SITE":"AFETR"},{"RA_OF_ASC_NODE":"269.3729","CENTER_NAME":"EARTH","CLASSIFICATION_TYPE":"U","ECCENTRICITY":"0.00076840","OBJECT_TYPE":"PAYLOAD","TLE_LINE1":"1 47553U 21009F   21233.41480003  .00000215  00000-0  33507-4 0  9997","TIME_SYSTEM":"UTC","BSTAR":"0.00003350700000","SEMIMAJOR_AXIS":"6925.355","APOAPSIS":"552.542","ARG_OF_PERICENTER":"65.4201","DECAY_DATE":null,"OBJECT_ID":"2021-009F","FILE":"3100802","GP_ID":"183164191","COUNTRY_CODE":"US","RCS_SIZE":"LARGE","LAUNCH_DATE":"2021-02-04","MEAN_ELEMENT_THEORY":"SGP4","REV_AT_EPOCH":"3115","NORAD_CAT_ID":"47553","INCLINATION":"53.0550","MEAN_ANOMALY":"294.7588","PERIAPSIS":"541.899","REF_FRAME":"TEME","SITE":"AFETR","EPOCH":"2021-08-21T09:57:18.722592","MEAN_MOTION_DDOT":"0.0000000000000","TLE_LINE2":"2 47553  53.0550 269.3729 0007684  65.4201 294.7588 15.06397803 31150","EPHEMERIS_TYPE":"0","MEAN_MOTION_DOT":"0.00000215","PERIOD":"95.592","ELEMENT_SET_NO":"999","MEAN_MOTION":"15.06397803","OBJECT_NAME":"STARLINK-1951"}];
